[{"OBJECT_NAME":"DMSP 5D-3 F16 (USA 172)","OBJECT_ID":"2003-048A","EPOCH":"2026-03-05T14:46:03.044064","MEAN_MOTION":14.14460277,"ECCENTRICITY":0.00081846,"INCLINATION":98.9996,"RA_OF_ASC_NODE":87.7117,"ARG_OF_PERICENTER":82.7963,"MEAN_ANOMALY":26.9577,"EPHEMERIS_TYPE":0,"CLASSIFICATION_TYPE":"U","NORAD_CAT_ID":28054,"ELEMENT_SET_NO":999,"REV_AT_EPOCH":15484,"BSTAR":0.00012356282,"MEAN_MOTION_DOT":1.91e-6,"MEAN_MOTION_DDOT":0},{"OBJECT_NAME":"METEOSAT-9 (MSG-2)","OBJECT_ID":"2005-049B","EPOCH":"2026-03-05T14:12:55.418112","MEAN_MOTION":1.00277983,"ECCENTRICITY":0.00016715,"INCLINATION":9.1276,"RA_OF_ASC_NODE":55.1704,"ARG_OF_PERICENTER":223.3348,"MEAN_ANOMALY":143.8053,"EPHEMERIS_TYPE":0,"CLASSIFICATION_TYPE":"U","NORAD_CAT_ID":28912,"ELEMENT_SET_NO":999,"REV_AT_EPOCH":596,"BSTAR":0,"MEAN_MOTION_DOT":1.19e-6,"MEAN_MOTION_DDOT":0},{"OBJECT_NAME":"DMSP 5D-3 F17 (USA 191)","OBJECT_ID":"2006-050A","EPOCH":"2026-03-05T13:50:24.175680","MEAN_MOTION":14.14961805,"ECCENTRICITY":0.00099957,"INCLINATION":98.7413,"RA_OF_ASC_NODE":73.2555,"ARG_OF_PERICENTER":358.7775,"MEAN_ANOMALY":1.3372,"EPHEMERIS_TYPE":0,"CLASSIFICATION_TYPE":"U","NORAD_CAT_ID":29522,"ELEMENT_SET_NO":999,"REV_AT_EPOCH":99776,"BSTAR":0.0001449896,"MEAN_MOTION_DOT":2.37e-6,"MEAN_MOTION_DDOT":0},{"OBJECT_NAME":"FENGYUN 3A","OBJECT_ID":"2008-026A","EPOCH":"2026-03-05T10:27:20.865024","MEAN_MOTION":14.19544799,"ECCENTRICITY":0.00097839,"INCLINATION":98.6793,"RA_OF_ASC_NODE":7.2633,"ARG_OF_PERICENTER":69.2484,"MEAN_ANOMALY":290.9739,"EPHEMERIS_TYPE":0,"CLASSIFICATION_TYPE":"U","NORAD_CAT_ID":32958,"ELEMENT_SET_NO":999,"REV_AT_EPOCH":92068,"BSTAR":9.5717144e-5,"MEAN_MOTION_DOT":1.59e-6,"MEAN_MOTION_DDOT":0},{"OBJECT_NAME":"GOES 14","OBJECT_ID":"2009-033A","EPOCH":"2026-03-05T13:14:31.017696","MEAN_MOTION":1.0009961,"ECCENTRICITY":0.00017863,"INCLINATION":1.4223,"RA_OF_ASC_NODE":84.4042,"ARG_OF_PERICENTER":254.4108,"MEAN_ANOMALY":224.2454,"EPHEMERIS_TYPE":0,"CLASSIFICATION_TYPE":"U","NORAD_CAT_ID":35491,"ELEMENT_SET_NO":999,"REV_AT_EPOCH":555,"BSTAR":0,"MEAN_MOTION_DOT":1.18e-6,"MEAN_MOTION_DDOT":0},{"OBJECT_NAME":"DMSP 5D-3 F18 (USA 210)","OBJECT_ID":"2009-057A","EPOCH":"2026-03-05T14:39:21.265056","MEAN_MOTION":14.14832941,"ECCENTRICITY":0.00108973,"INCLINATION":98.8958,"RA_OF_ASC_NODE":45.6538,"ARG_OF_PERICENTER":179.8298,"MEAN_ANOMALY":180.2881,"EPHEMERIS_TYPE":0,"CLASSIFICATION_TYPE":"U","NORAD_CAT_ID":35951,"ELEMENT_SET_NO":999,"REV_AT_EPOCH":84494,"BSTAR":0.0002072497,"MEAN_MOTION_DOT":3.55e-6,"MEAN_MOTION_DDOT":0},{"OBJECT_NAME":"EWS-G2 (GOES 15)","OBJECT_ID":"2010-008A","EPOCH":"2026-03-05T14:17:54.940128","MEAN_MOTION":1.00269592,"ECCENTRICITY":0.00019891,"INCLINATION":1.0118,"RA_OF_ASC_NODE":85.1228,"ARG_OF_PERICENTER":18.7322,"MEAN_ANOMALY":337.4215,"EPHEMERIS_TYPE":0,"CLASSIFICATION_TYPE":"U","NORAD_CAT_ID":36411,"ELEMENT_SET_NO":999,"REV_AT_EPOCH":5859,"BSTAR":0,"MEAN_MOTION_DOT":1.4e-7,"MEAN_MOTION_DDOT":0},{"OBJECT_NAME":"COMS 1","OBJECT_ID":"2010-032A","EPOCH":"2026-03-05T12:53:40.515936","MEAN_MOTION":1.00272051,"ECCENTRICITY":0.00012304,"INCLINATION":4.5386,"RA_OF_ASC_NODE":76.8545,"ARG_OF_PERICENTER":288.48,"MEAN_ANOMALY":119.5269,"EPHEMERIS_TYPE":0,"CLASSIFICATION_TYPE":"U","NORAD_CAT_ID":36744,"ELEMENT_SET_NO":999,"REV_AT_EPOCH":5005,"BSTAR":0,"MEAN_MOTION_DOT":-3.5e-6,"MEAN_MOTION_DDOT":0},{"OBJECT_NAME":"FENGYUN 3B","OBJECT_ID":"2010-059A","EPOCH":"2026-03-05T15:34:12.965952","MEAN_MOTION":14.14816758,"ECCENTRICITY":0.00230036,"INCLINATION":98.977,"RA_OF_ASC_NODE":110.1597,"ARG_OF_PERICENTER":119.0811,"MEAN_ANOMALY":40.7871,"EPHEMERIS_TYPE":0,"CLASSIFICATION_TYPE":"U","NORAD_CAT_ID":37214,"ELEMENT_SET_NO":999,"REV_AT_EPOCH":79278,"BSTAR":0.00020701062,"MEAN_MOTION_DOT":3.55e-6,"MEAN_MOTION_DDOT":0},{"OBJECT_NAME":"SUOMI NPP","OBJECT_ID":"2011-061A","EPOCH":"2026-03-05T14:01:52.184928","MEAN_MOTION":14.19542227,"ECCENTRICITY":3.96e-5,"INCLINATION":98.7866,"RA_OF_ASC_NODE":6.22,"ARG_OF_PERICENTER":269.7026,"MEAN_ANOMALY":90.4105,"EPHEMERIS_TYPE":0,"CLASSIFICATION_TYPE":"U","NORAD_CAT_ID":37849,"ELEMENT_SET_NO":999,"REV_AT_EPOCH":74374,"BSTAR":9.2068262e-5,"MEAN_MOTION_DOT":1.5e-6,"MEAN_MOTION_DDOT":0},{"OBJECT_NAME":"METEOSAT-10 (MSG-3)","OBJECT_ID":"2012-035B","EPOCH":"2026-03-05T13:59:56.662944","MEAN_MOTION":1.00267324,"ECCENTRICITY":0.00025137,"INCLINATION":4.4265,"RA_OF_ASC_NODE":61.4585,"ARG_OF_PERICENTER":281.0136,"MEAN_ANOMALY":31.0878,"EPHEMERIS_TYPE":0,"CLASSIFICATION_TYPE":"U","NORAD_CAT_ID":38552,"ELEMENT_SET_NO":999,"REV_AT_EPOCH":4981,"BSTAR":0,"MEAN_MOTION_DOT":-1.2e-7,"MEAN_MOTION_DDOT":0},{"OBJECT_NAME":"METOP-B","OBJECT_ID":"2012-049A","EPOCH":"2026-03-05T13:45:52.826976","MEAN_MOTION":14.21443194,"ECCENTRICITY":0.0001194,"INCLINATION":98.665,"RA_OF_ASC_NODE":118.0754,"ARG_OF_PERICENTER":288.4903,"MEAN_ANOMALY":71.6145,"EPHEMERIS_TYPE":0,"CLASSIFICATION_TYPE":"U","NORAD_CAT_ID":38771,"ELEMENT_SET_NO":999,"REV_AT_EPOCH":69854,"BSTAR":9.7498568e-5,"MEAN_MOTION_DOT":1.7e-6,"MEAN_MOTION_DDOT":0},{"OBJECT_NAME":"INSAT-3D","OBJECT_ID":"2013-038B","EPOCH":"2026-03-05T14:35:38.760864","MEAN_MOTION":1.00272971,"ECCENTRICITY":0.00017235,"INCLINATION":1.6585,"RA_OF_ASC_NODE":83.8979,"ARG_OF_PERICENTER":245.3073,"MEAN_ANOMALY":182.5336,"EPHEMERIS_TYPE":0,"CLASSIFICATION_TYPE":"U","NORAD_CAT_ID":39216,"ELEMENT_SET_NO":999,"REV_AT_EPOCH":4604,"BSTAR":0,"MEAN_MOTION_DOT":-3.46e-6,"MEAN_MOTION_DDOT":0},{"OBJECT_NAME":"FENGYUN 3C","OBJECT_ID":"2013-052A","EPOCH":"2026-03-05T15:32:12.787872","MEAN_MOTION":14.1572747,"ECCENTRICITY":0.00140232,"INCLINATION":98.4885,"RA_OF_ASC_NODE":43.3322,"ARG_OF_PERICENTER":325.4518,"MEAN_ANOMALY":34.5744,"EPHEMERIS_TYPE":0,"CLASSIFICATION_TYPE":"U","NORAD_CAT_ID":39260,"ELEMENT_SET_NO":999,"REV_AT_EPOCH":64391,"BSTAR":0.00010660117,"MEAN_MOTION_DOT":1.68e-6,"MEAN_MOTION_DDOT":0},{"OBJECT_NAME":"METEOR-M 2","OBJECT_ID":"2014-037A","EPOCH":"2026-03-05T14:24:56.337984","MEAN_MOTION":14.21426076,"ECCENTRICITY":0.00056379,"INCLINATION":98.5019,"RA_OF_ASC_NODE":44.0625,"ARG_OF_PERICENTER":350.1627,"MEAN_ANOMALY":9.9439,"EPHEMERIS_TYPE":0,"CLASSIFICATION_TYPE":"U","NORAD_CAT_ID":40069,"ELEMENT_SET_NO":999,"REV_AT_EPOCH":60460,"BSTAR":2.080796e-6,"MEAN_MOTION_DOT":-3.8e-7,"MEAN_MOTION_DDOT":0},{"OBJECT_NAME":"HIMAWARI-8","OBJECT_ID":"2014-060A","EPOCH":"2026-03-05T12:57:17.669376","MEAN_MOTION":1.00271717,"ECCENTRICITY":7.392e-5,"INCLINATION":0.0272,"RA_OF_ASC_NODE":241.277,"ARG_OF_PERICENTER":95.2816,"MEAN_ANOMALY":161.6844,"EPHEMERIS_TYPE":0,"CLASSIFICATION_TYPE":"U","NORAD_CAT_ID":40267,"ELEMENT_SET_NO":999,"REV_AT_EPOCH":4172,"BSTAR":0,"MEAN_MOTION_DOT":-2.83e-6,"MEAN_MOTION_DDOT":0},{"OBJECT_NAME":"FENGYUN 2G","OBJECT_ID":"2014-090A","EPOCH":"2026-03-05T12:45:33.793632","MEAN_MOTION":1.00274179,"ECCENTRICITY":0.00017946,"INCLINATION":5.377,"RA_OF_ASC_NODE":74.074,"ARG_OF_PERICENTER":152.3753,"MEAN_ANOMALY":227.8922,"EPHEMERIS_TYPE":0,"CLASSIFICATION_TYPE":"U","NORAD_CAT_ID":40367,"ELEMENT_SET_NO":999,"REV_AT_EPOCH":4096,"BSTAR":0,"MEAN_MOTION_DOT":-3.08e-6,"MEAN_MOTION_DDOT":0}]
