DMSP 5D-3 F16 (USA 172) 
1 28054U 03048A   26064.61531301  .00000191  00000+0  12356-3 0  9992
2 28054  98.9996  87.7117 0008184  82.7963  26.9577 14.14460277154842
METEOSAT-9 (MSG-2)      
1 28912U 05049B   26064.59230808  .00000119  00000+0  00000+0 0  9992
2 28912   9.1276  55.1704 0001671 223.3348 143.8053  1.00277983  5962
DMSP 5D-3 F17 (USA 191) 
1 29522U 06050A   26064.57666870  .00000237  00000+0  14499-3 0  9995
2 29522  98.7413  73.2555 0009995 358.7775   1.3372 14.14961805997768
FENGYUN 3A              
1 32958U 08026A   26064.43565816  .00000159  00000+0  95717-4 0  9996
2 32958  98.6793   7.2633 0009783  69.2484 290.9739 14.19544799920689
GOES 14                 
1 35491U 09033A   26064.55174789  .00000118  00000+0  00000+0 0  9999
2 35491   1.4223  84.4042 0001786 254.4108 224.2454  1.00099610  5558
DMSP 5D-3 F18 (USA 210) 
1 35951U 09057A   26064.61066279  .00000355  00000+0  20725-3 0  9990
2 35951  98.8958  45.6538 0010897 179.8298 180.2881 14.14832941844946
EWS-G2 (GOES 15)        
1 36411U 10008A   26064.59577477  .00000014  00000+0  00000+0 0  9996
2 36411   1.0118  85.1228 0001989  18.7322 337.4215  1.00269592 58590
COMS 1                  
1 36744U 10032A   26064.53727449 -.00000350  00000+0  00000+0 0  9996
2 36744   4.5386  76.8545 0001230 288.4800 119.5269  1.00272051 50054
FENGYUN 3B              
1 37214U 10059A   26064.64876118  .00000355  00000+0  20701-3 0  9996
2 37214  98.9770 110.1597 0023003 119.0811  40.7871 14.14816758792787
SUOMI NPP               
1 37849U 11061A   26064.58463177  .00000150  00000+0  92068-4 0  9993
2 37849  98.7866   6.2200 0000396 269.7026  90.4105 14.19542227743748
METEOSAT-10 (MSG-3)     
1 38552U 12035B   26064.58329471 -.00000012  00000+0  00000+0 0  9993
2 38552   4.4265  61.4585 0002513 281.0136  31.0878  1.00267324 49811
METOP-B                 
1 38771U 12049A   26064.57352809  .00000170  00000+0  97499-4 0  9998
2 38771  98.6650 118.0754 0001194 288.4903  71.6145 14.21443194698546
INSAT-3D                
1 39216U 13038B   26064.60808751 -.00000346  00000+0  00000+0 0  9991
2 39216   1.6585  83.8979 0001723 245.3073 182.5336  1.00272971 46040
FENGYUN 3C              
1 39260U 13052A   26064.64737023  .00000168  00000+0  10660-3 0  9991
2 39260  98.4885  43.3322 0014023 325.4518  34.5744 14.15727470643917
METEOR-M 2              
1 40069U 14037A   26064.60065206 -.00000038  00000+0  20808-5 0  9991
2 40069  98.5019  44.0625 0005637 350.1627   9.9439 14.21426076604602
HIMAWARI-8              
1 40267U 14060A   26064.53978784 -.00000283  00000+0  00000+0 0  9991
2 40267   0.0272 241.2770 0000739  95.2816 161.6844  1.00271717 41725
FENGYUN 2G              
1 40367U 14090A   26064.53164113 -.00000308  00000+0  00000+0 0  9996
2 40367   5.3770  74.0740 0001794 152.3753 227.8922  1.00274179 40965
